start=new Date('2022-05-23T00:00:00.000Z').valueOf();
sats=[{"INCLINATION":"53.0542","EPOCH":"2022-05-22T14:50:56.928480","ARG_OF_PERICENTER":"48.8690","MEAN_ELEMENT_THEORY":"SGP4","OBJECT_TYPE":"PAYLOAD","PERIOD":"95.592","MEAN_MOTION_DDOT":"0.0000000000000","ECCENTRICITY":"0.00020110","LAUNCH_DATE":"2020-09-03","EPHEMERIS_TYPE":"0","RA_OF_ASC_NODE":"103.4226","COUNTRY_CODE":"US","TLE_LINE2":"2 46341  53.0542 103.4226 0002011  48.8690 311.2472 15.06399613 95531","RCS_SIZE":"LARGE","FILE":"3459268","REV_AT_EPOCH":"9553","MEAN_MOTION_DOT":"0.00000354","REF_FRAME":"TEME","PERIAPSIS":"545.822","CLASSIFICATION_TYPE":"U","DECAY_DATE":null,"APOAPSIS":"548.607","BSTAR":"0.00004270500000","MEAN_ANOMALY":"311.2472","OBJECT_NAME":"STARLINK-1760","SEMIMAJOR_AXIS":"6925.350","ELEMENT_SET_NO":"999","TIME_SYSTEM":"UTC","NORAD_CAT_ID":"46341","MEAN_MOTION":"15.06399613","TLE_LINE1":"1 46341U 20062S   22142.61871445  .00000354  00000-0  42705-4 0  9999","SITE":"AFETR","CENTER_NAME":"EARTH","GP_ID":"204279581","OBJECT_ID":"2020-062S"},{"RCS_SIZE":"LARGE","FILE":"3459268","MEAN_MOTION_DOT":"0.00000513","REV_AT_EPOCH":"9525","COUNTRY_CODE":"US","TLE_LINE2":"2 46342  53.0560 123.1999 0001870  51.2340 308.8815 15.06399957 95253","RA_OF_ASC_NODE":"123.1999","EPHEMERIS_TYPE":"0","CLASSIFICATION_TYPE":"U","PERIAPSIS":"545.919","REF_FRAME":"TEME","ARG_OF_PERICENTER":"51.2340","EPOCH":"2022-05-22T15:57:18.020160","INCLINATION":"53.0560","LAUNCH_DATE":"2020-09-03","OBJECT_TYPE":"PAYLOAD","PERIOD":"95.592","ECCENTRICITY":"0.00018700","MEAN_MOTION_DDOT":"0.0000000000000","MEAN_ELEMENT_THEORY":"SGP4","SITE":"AFETR","TLE_LINE1":"1 46342U 20062T   22142.66479190  .00000513  00000-0  53325-4 0  9993","OBJECT_ID":"2020-062T","GP_ID":"204279827","CENTER_NAME":"EARTH","SEMIMAJOR_AXIS":"6925.349","ELEMENT_SET_NO":"999","DECAY_DATE":null,"APOAPSIS":"548.509","BSTAR":"0.00005332500000","OBJECT_NAME":"STARLINK-1762","MEAN_ANOMALY":"308.8815","MEAN_MOTION":"15.06399957","NORAD_CAT_ID":"46342","TIME_SYSTEM":"UTC"},{"LAUNCH_DATE":"2020-09-03","OBJECT_TYPE":"PAYLOAD","ECCENTRICITY":"0.00020470","PERIOD":"95.592","MEAN_MOTION_DDOT":"0.0000000000000","MEAN_ELEMENT_THEORY":"SGP4","ARG_OF_PERICENTER":"54.5002","INCLINATION":"53.0555","EPOCH":"2022-05-22T14:13:47.678016","CLASSIFICATION_TYPE":"U","REF_FRAME":"TEME","PERIAPSIS":"545.792","RCS_SIZE":"LARGE","FILE":"3459268","REV_AT_EPOCH":"9552","MEAN_MOTION_DOT":"-0.00000268","COUNTRY_CODE":"US","TLE_LINE2":"2 46343  53.0555 103.5498 0002047  54.5002 305.6177 15.06401257 95525","RA_OF_ASC_NODE":"103.5498","EPHEMERIS_TYPE":"0","MEAN_MOTION":"15.06401257","NORAD_CAT_ID":"46343","TIME_SYSTEM":"UTC","SEMIMAJOR_AXIS":"6925.345","ELEMENT_SET_NO":"999","APOAPSIS":"548.627","DECAY_DATE":null,"BSTAR":"0.00000094627000","OBJECT_NAME":"STARLINK-1764","MEAN_ANOMALY":"305.6177","OBJECT_ID":"2020-062U","GP_ID":"204278083","CENTER_NAME":"EARTH","SITE":"AFETR","TLE_LINE1":"1 46343U 20062U   22142.59291294 -.00000268  00000-0  94627-6 0  9993"},{"MEAN_ANOMALY":"319.8460","OBJECT_NAME":"STARLINK-1765","APOAPSIS":"548.791","DECAY_DATE":null,"BSTAR":"0.00011564000000","ELEMENT_SET_NO":"999","SEMIMAJOR_AXIS":"6925.348","NORAD_CAT_ID":"46344","TIME_SYSTEM":"UTC","MEAN_MOTION":"15.06400078","SITE":"AFETR","TLE_LINE1":"1 46344U 20062V   22142.61134408  .00001441  00000-0  11564-3 0  9999","GP_ID":"204278333","CENTER_NAME":"EARTH","OBJECT_ID":"2020-062V","EPOCH":"2022-05-22T14:40:20.128512","INCLINATION":"53.0568","ARG_OF_PERICENTER":"40.2697","MEAN_ELEMENT_THEORY":"SGP4","LAUNCH_DATE":"2020-09-03","PERIOD":"95.592","ECCENTRICITY":"0.00022780","MEAN_MOTION_DDOT":"0.0000000000000","OBJECT_TYPE":"PAYLOAD","RA_OF_ASC_NODE":"103.4614","EPHEMERIS_TYPE":"0","REV_AT_EPOCH":"9552","FILE":"3459268","MEAN_MOTION_DOT":"0.00001441","RCS_SIZE":"LARGE","COUNTRY_CODE":"US","TLE_LINE2":"2 46344  53.0568 103.4614 0002278  40.2697 319.8460 15.06400078 95529","PERIAPSIS":"545.636","REF_FRAME":"TEME","CLASSIFICATION_TYPE":"U"},{"OBJECT_TYPE":"PAYLOAD","PERIOD":"95.592","ECCENTRICITY":"0.00022070","MEAN_MOTION_DDOT":"0.0000000000000","LAUNCH_DATE":"2020-09-03","MEAN_ELEMENT_THEORY":"SGP4","ARG_OF_PERICENTER":"38.7857","EPOCH":"2022-05-22T16:18:31.815360","INCLINATION":"53.0544","CLASSIFICATION_TYPE":"U","REF_FRAME":"TEME","PERIAPSIS":"545.683","TLE_LINE2":"2 46345  53.0544 123.1388 0002207  38.7857 321.3290 15.06400584 95254","COUNTRY_CODE":"US","RCS_SIZE":"LARGE","MEAN_MOTION_DOT":"0.00000422","FILE":"3459268","REV_AT_EPOCH":"9525","EPHEMERIS_TYPE":"0","RA_OF_ASC_NODE":"123.1388","MEAN_MOTION":"15.06400584","TIME_SYSTEM":"UTC","NORAD_CAT_ID":"46345","SEMIMAJOR_AXIS":"6925.347","ELEMENT_SET_NO":"999","DECAY_DATE":null,"APOAPSIS":"548.740","BSTAR":"0.00004724400000","OBJECT_NAME":"STARLINK-1767","MEAN_ANOMALY":"321.3290","OBJECT_ID":"2020-062W","CENTER_NAME":"EARTH","GP_ID":"204279082","TLE_LINE1":"1 46345U 20062W   22142.67953490  .00000422  00000-0  47244-4 0  9999","SITE":"AFETR"},{"REF_FRAME":"TEME","PERIAPSIS":"461.003","CLASSIFICATION_TYPE":"U","EPHEMERIS_TYPE":"0","RA_OF_ASC_NODE":"331.0955","TLE_LINE2":"2 46346  53.0534 331.0955 0003097  13.8294 346.2792 15.34259909 97418","COUNTRY_CODE":"US","RCS_SIZE":"LARGE","REV_AT_EPOCH":"9741","FILE":"3459268","MEAN_MOTION_DOT":"-0.00000707","MEAN_ELEMENT_THEORY":"SGP4","OBJECT_TYPE":"PAYLOAD","MEAN_MOTION_DDOT":"0.0000000000000","PERIOD":"93.856","ECCENTRICITY":"0.00030970","LAUNCH_DATE":"2020-09-03","EPOCH":"2022-05-22T19:26:06.882432","INCLINATION":"53.0534","ARG_OF_PERICENTER":"13.8294","CENTER_NAME":"EARTH","GP_ID":"204279328","OBJECT_ID":"2020-062X","TLE_LINE1":"1 46346U 20062X   22142.80980188 -.00000707  00000-0 -98163-5 0  9994","SITE":"AFETR","TIME_SYSTEM":"UTC","NORAD_CAT_ID":"46346","MEAN_MOTION":"15.34259909","DECAY_DATE":null,"APOAPSIS":"465.240","BSTAR":"-0.00000981630000","OBJECT_NAME":"STARLINK-1546","MEAN_ANOMALY":"346.2792","SEMIMAJOR_AXIS":"6841.257","ELEMENT_SET_NO":"999"},{"GP_ID":"204239193","CENTER_NAME":"EARTH","OBJECT_ID":"2020-062Y","SITE":"AFETR","TLE_LINE1":"1 46347U 20062Y   22142.10682158  .00001590  00000-0  12557-3 0  9994","NORAD_CAT_ID":"46347","TIME_SYSTEM":"UTC","MEAN_MOTION":"15.06408653","OBJECT_NAME":"STARLINK-1547","MEAN_ANOMALY":"316.8029","APOAPSIS":"548.637","DECAY_DATE":null,"BSTAR":"0.00012557000000","ELEMENT_SET_NO":"999","SEMIMAJOR_AXIS":"6925.322","PERIAPSIS":"545.738","REF_FRAME":"TEME","CLASSIFICATION_TYPE":"U","RA_OF_ASC_NODE":"80.7106","EPHEMERIS_TYPE":"0","FILE":"3458680","MEAN_MOTION_DOT":"0.00001590","REV_AT_EPOCH":"9578","RCS_SIZE":"LARGE","TLE_LINE2":"2 46347  53.0557  80.7106 0002093  43.3124 316.8029 15.06408653 95780","COUNTRY_CODE":"US","MEAN_ELEMENT_THEORY":"SGP4","LAUNCH_DATE":"2020-09-03","MEAN_MOTION_DDOT":"0.0000000000000","PERIOD":"95.592","ECCENTRICITY":"0.00020930","OBJECT_TYPE":"PAYLOAD","INCLINATION":"53.0557","EPOCH":"2022-05-22T02:33:49.384512","ARG_OF_PERICENTER":"43.3124"},{"NORAD_CAT_ID":"46348","TIME_SYSTEM":"UTC","MEAN_MOTION":"15.06403625","MEAN_ANOMALY":"317.6857","OBJECT_NAME":"STARLINK-1553","DECAY_DATE":null,"BSTAR":"0.00021575000000","APOAPSIS":"548.764","ELEMENT_SET_NO":"999","SEMIMAJOR_AXIS":"6925.337","GP_ID":"204278833","CENTER_NAME":"EARTH","OBJECT_ID":"2020-062Z","SITE":"AFETR","TLE_LINE1":"1 46348U 20062Z   22142.61502700  .00002934  00000-0  21575-3 0  9998","MEAN_ELEMENT_THEORY":"SGP4","LAUNCH_DATE":"2020-09-03","MEAN_MOTION_DDOT":"0.0000000000000","PERIOD":"95.592","ECCENTRICITY":"0.00022550","OBJECT_TYPE":"PAYLOAD","EPOCH":"2022-05-22T14:45:38.332800","INCLINATION":"53.0542","ARG_OF_PERICENTER":"42.4306","PERIAPSIS":"545.641","REF_FRAME":"TEME","CLASSIFICATION_TYPE":"U","RA_OF_ASC_NODE":"103.4268","EPHEMERIS_TYPE":"0","MEAN_MOTION_DOT":"0.00002934","FILE":"3459268","REV_AT_EPOCH":"9552","RCS_SIZE":"LARGE","TLE_LINE2":"2 46348  53.0542 103.4268 0002255  42.4306 317.6857 15.06403625 95523","COUNTRY_CODE":"US"},{"BSTAR":"-0.00017721000000","DECAY_DATE":null,"APOAPSIS":"548.639","OBJECT_NAME":"STARLINK-1575","MEAN_ANOMALY":"314.1206","SEMIMAJOR_AXIS":"6925.376","ELEMENT_SET_NO":"999","NORAD_CAT_ID":"46349","TIME_SYSTEM":"UTC","MEAN_MOTION":"15.06391187","SITE":"AFETR","TLE_LINE1":"1 46349U 20062AA  22142.54546762 -.00002920  00000-0 -17721-3 0  9992","GP_ID":"204246051","CENTER_NAME":"EARTH","OBJECT_ID":"2020-062AA","EPOCH":"2022-05-22T13:05:28.402368","INCLINATION":"53.0555","ARG_OF_PERICENTER":"45.9950","MEAN_ELEMENT_THEORY":"SGP4","LAUNCH_DATE":"2020-09-03","OBJECT_TYPE":"PAYLOAD","PERIOD":"95.593","ECCENTRICITY":"0.00020190","MEAN_MOTION_DDOT":"0.0000000000000","RA_OF_ASC_NODE":"78.7534","EPHEMERIS_TYPE":"0","RCS_SIZE":"LARGE","REV_AT_EPOCH":"9604","FILE":"3458745","MEAN_MOTION_DOT":"-0.00002920","TLE_LINE2":"2 46349  53.0555  78.7534 0002019  45.9950 314.1206 15.06391187 96046","COUNTRY_CODE":"US","PERIAPSIS":"545.842","REF_FRAME":"TEME","CLASSIFICATION_TYPE":"U"},{"MEAN_ELEMENT_THEORY":"SGP4","LAUNCH_DATE":"2020-09-03","PERIOD":"95.592","ECCENTRICITY":"0.00021710","MEAN_MOTION_DDOT":"0.0000000000000","OBJECT_TYPE":"PAYLOAD","EPOCH":"2022-05-22T15:25:27.571872","INCLINATION":"53.0537","ARG_OF_PERICENTER":"44.0791","REF_FRAME":"TEME","PERIAPSIS":"545.727","CLASSIFICATION_TYPE":"U","RA_OF_ASC_NODE":"123.3238","EPHEMERIS_TYPE":"0","MEAN_MOTION_DOT":"-0.00000179","FILE":"3459268","REV_AT_EPOCH":"9525","RCS_SIZE":"LARGE","TLE_LINE2":"2 46350  53.0537 123.3238 0002171  44.0791 316.0371 15.06394363 95253","COUNTRY_CODE":"US","NORAD_CAT_ID":"46350","TIME_SYSTEM":"UTC","MEAN_MOTION":"15.06394363","MEAN_ANOMALY":"316.0371","OBJECT_NAME":"STARLINK-1617","BSTAR":"0.00000690860000","DECAY_DATE":null,"APOAPSIS":"548.734","ELEMENT_SET_NO":"999","SEMIMAJOR_AXIS":"6925.366","GP_ID":"204279828","CENTER_NAME":"EARTH","OBJECT_ID":"2020-062AB","SITE":"AFETR","TLE_LINE1":"1 46350U 20062AB  22142.64268023 -.00000179  00000-0  69086-5 0  9992"}];
